[{"OBJECT_NAME":"GEOSCAN 1 (RS92S1)","OBJECT_ID":"2025-155E","EPOCH":"2026-03-09T22:44:05.846496","MEAN_MOTION":15.28410635,"ECCENTRICITY":0.00087099,"INCLINATION":97.4463,"RA_OF_ASC_NODE":37.403,"ARG_OF_PERICENTER":153.6429,"MEAN_ANOMALY":206.5255,"EPHEMERIS_TYPE":0,"CLASSIFICATION_TYPE":"U","NORAD_CAT_ID":64880,"ELEMENT_SET_NO":999,"REV_AT_EPOCH":6560,"BSTAR":0.00054367431,"MEAN_MOTION_DOT":0.00014993,"MEAN_MOTION_DDOT":0},{"OBJECT_NAME":"STARLINK-36513","OBJECT_ID":"2026-005AB","EPOCH":"2026-03-09T22:00:01.999584","MEAN_MOTION":15.27514264,"ECCENTRICITY":0.00018207,"INCLINATION":43.0014,"RA_OF_ASC_NODE":236.558,"ARG_OF_PERICENTER":276.181,"MEAN_ANOMALY":53.517,"EPHEMERIS_TYPE":0,"CLASSIFICATION_TYPE":"U","NORAD_CAT_ID":67429,"ELEMENT_SET_NO":999,"REV_AT_EPOCH":588,"BSTAR":0.0026396053,"MEAN_MOTION_DOT":0.00072949,"MEAN_MOTION_DDOT":0}]
